{
  "type": "FeatureCollection",
  "features": [
    {
      "type": "Feature",
      "properties": {
        "norad_id": 66927,
        "name": "STARLINK-35943",
        "group": "last-30-days",
        "lat": 14.443485810278782,
        "lon": -10.393309314660268,
        "alt_km": 409.1981038283702,
        "timestamp": "2025-12-27T05:29:37.918491+00:00",
        "meta_object_name": "STARLINK-35943",
        "meta_object_id": "2025-286C",
        "meta_epoch": "2025-12-26T22:00:01.999584",
        "meta_mean_motion": 15.53504091,
        "meta_eccentricity": 0.00011747,
        "meta_inclination": 53.1591,
        "meta_ra_of_asc_node": 339.9736,
        "meta_arg_of_pericenter": 88.5926,
        "meta_mean_anomaly": 343.3281,
        "meta_ephemeris_type": 0,
        "meta_classification_type": "U",
        "meta_norad_cat_id": 66927,
        "meta_element_set_no": 999,
        "meta_rev_at_epoch": 426,
        "meta_bstar": -0.034953681,
        "meta_mean_motion_dot": -0.02018208,
        "meta_mean_motion_ddot": 0,
        "tle_line1": "1 66927U 25286C   25360.91668981 -.02018208  00000+0 -34954-1 0  9995",
        "tle_line2": "2 66927  53.1591 339.9736 0001174  88.5926 343.3281 15.53504091  4266"
      },
      "geometry": {
        "type": "Point",
        "coordinates": [
          -10.393309314660268,
          14.443485810278782
        ]
      }
    },
    {
      "type": "Feature",
      "properties": {
        "norad_id": 66928,
        "name": "STARLINK-35944",
        "group": "last-30-days",
        "lat": 11.420121052392378,
        "lon": -12.809103400669585,
        "alt_km": 409.6619722883097,
        "timestamp": "2025-12-27T05:29:37.918501+00:00",
        "meta_object_name": "STARLINK-35944",
        "meta_object_id": "2025-286D",
        "meta_epoch": "2025-12-26T22:00:01.999584",
        "meta_mean_motion": 15.53505495,
        "meta_eccentricity": 0.00012119,
        "meta_inclination": 53.1593,
        "meta_ra_of_asc_node": 339.9812,
        "meta_arg_of_pericenter": 84.8799,
        "meta_mean_anomaly": 343.207,
        "meta_ephemeris_type": 0,
        "meta_classification_type": "U",
        "meta_norad_cat_id": 66928,
        "meta_element_set_no": 999,
        "meta_rev_at_epoch": 426,
        "meta_bstar": -0.03501213,
        "meta_mean_motion_dot": -0.02021339,
        "meta_mean_motion_ddot": 0,
        "tle_line1": "1 66928U 25286D   25360.91668981 -.02021339  00000+0 -35012-1 0  9991",
        "tle_line2": "2 66928  53.1593 339.9812 0001211  84.8799 343.2070 15.53505495  4267"
      },
      "geometry": {
        "type": "Point",
        "coordinates": [
          -12.809103400669585,
          11.420121052392378
        ]
      }
    },
    {
      "type": "Feature",
      "properties": {
        "norad_id": 66929,
        "name": "STARLINK-36169",
        "group": "last-30-days",
        "lat": 15.94528051599774,
        "lon": -9.16219540942604,
        "alt_km": 408.95901466748,
        "timestamp": "2025-12-27T05:29:37.918513+00:00",
        "meta_object_name": "STARLINK-36169",
        "meta_object_id": "2025-286E",
        "meta_epoch": "2025-12-26T22:00:01.999584",
        "meta_mean_motion": 15.535071,
        "meta_eccentricity": 0.00012791,
        "meta_inclination": 53.1598,
        "meta_ra_of_asc_node": 339.97,
        "meta_arg_of_pericenter": 92.0068,
        "meta_mean_anomaly": 341.8295,
        "meta_ephemeris_type": 0,
        "meta_classification_type": "U",
        "meta_norad_cat_id": 66929,
        "meta_element_set_no": 999,
        "meta_rev_at_epoch": 426,
        "meta_bstar": -0.035037763,
        "meta_mean_motion_dot": -0.02022807,
        "meta_mean_motion_ddot": 0,
        "tle_line1": "1 66929U 25286E   25360.91668981 -.02022807  00000+0 -35038-1 0  9991",
        "tle_line2": "2 66929  53.1598 339.9700 0001279  92.0068 341.8295 15.53507100  4261"
      },
      "geometry": {
        "type": "Point",
        "coordinates": [
          -9.16219540942604,
          15.94528051599774
        ]
      }
    },
    {
      "type": "Feature",
      "properties": {
        "norad_id": 66930,
        "name": "STARLINK-36206",
        "group": "last-30-days",
        "lat": 17.443367448567635,
        "lon": -7.9106591450427715,
        "alt_km": 408.75853968044703,
        "timestamp": "2025-12-27T05:29:37.918523+00:00",
        "meta_object_name": "STARLINK-36206",
        "meta_object_id": "2025-286F",
        "meta_epoch": "2025-12-26T22:00:01.999584",
        "meta_mean_motion": 15.53503369,
        "meta_eccentricity": 0.00010482,
        "meta_inclination": 53.1599,
        "meta_ra_of_asc_node": 339.9651,
        "meta_arg_of_pericenter": 93.4778,
        "meta_mean_anomaly": 342.2773,
        "meta_ephemeris_type": 0,
        "meta_classification_type": "U",
        "meta_norad_cat_id": 66930,
        "meta_element_set_no": 999,
        "meta_rev_at_epoch": 426,
        "meta_bstar": -0.034911214,
        "meta_mean_motion_dot": -0.02015893,
        "meta_mean_motion_ddot": 0,
        "tle_line1": "1 66930U 25286F   25360.91668981 -.02015893  00000+0 -34911-1 0  9999",
        "tle_line2": "2 66930  53.1599 339.9651 0001048  93.4778 342.2773 15.53503369  4265"
      },
      "geometry": {
        "type": "Point",
        "coordinates": [
          -7.9106591450427715,
          17.443367448567635
        ]
      }
    },
    {
      "type": "Feature",
      "properties": {
        "norad_id": 66931,
        "name": "STARLINK-36130",
        "group": "last-30-days",
        "lat": 18.93869106565761,
        "lon": -6.631807374665389,
        "alt_km": 408.5574343134231,
        "timestamp": "2025-12-27T05:29:37.918535+00:00",
        "meta_object_name": "STARLINK-36130",
        "meta_object_id": "2025-286G",
        "meta_epoch": "2025-12-26T22:00:01.999584",
        "meta_mean_motion": 15.53438671,
        "meta_eccentricity": 0.00010663,
        "meta_inclination": 53.159,
        "meta_ra_of_asc_node": 339.9616,
        "meta_arg_of_pericenter": 93.4809,
        "meta_mean_anomaly": 344.2498,
        "meta_ephemeris_type": 0,
        "meta_classification_type": "U",
        "meta_norad_cat_id": 66931,
        "meta_element_set_no": 999,
        "meta_rev_at_epoch": 426,
        "meta_bstar": -0.033881762,
        "meta_mean_motion_dot": -0.01958417,
        "meta_mean_motion_ddot": 0,
        "tle_line1": "1 66931U 25286G   25360.91668981 -.01958417  00000+0 -33882-1 0  9993",
        "tle_line2": "2 66931  53.1590 339.9616 0001066  93.4809 344.2498 15.53438671  4262"
      },
      "geometry": {
        "type": "Point",
        "coordinates": [
          -6.631807374665389,
          18.93869106565761
        ]
      }
    },
    {
      "type": "Feature",
      "properties": {
        "norad_id": 66932,
        "name": "STARLINK-36177",
        "group": "last-30-days",
        "lat": 20.407736787302053,
        "lon": -5.346591770033752,
        "alt_km": 408.2077412957915,
        "timestamp": "2025-12-27T05:29:37.918545+00:00",
        "meta_object_name": "STARLINK-36177",
        "meta_object_id": "2025-286H",
        "meta_epoch": "2025-12-26T22:00:01.999584",
        "meta_mean_motion": 15.53505364,
        "meta_eccentricity": 0.00011866,
        "meta_inclination": 53.1594,
        "meta_ra_of_asc_node": 339.9576,
        "meta_arg_of_pericenter": 92.9844,
        "meta_mean_anomaly": 346.6028,
        "meta_ephemeris_type": 0,
        "meta_classification_type": "U",
        "meta_norad_cat_id": 66932,
        "meta_element_set_no": 999,
        "meta_rev_at_epoch": 426,
        "meta_bstar": -0.034995496,
        "meta_mean_motion_dot": -0.02020457,
        "meta_mean_motion_ddot": 0,
        "tle_line1": "1 66932U 25286H   25360.91668981 -.02020457  00000+0 -34995-1 0  9995",
        "tle_line2": "2 66932  53.1594 339.9576 0001186  92.9844 346.6028 15.53505364  4267"
      },
      "geometry": {
        "type": "Point",
        "coordinates": [
          -5.346591770033752,
          20.407736787302053
        ]
      }
    },
    {
      "type": "Feature",
      "properties": {
        "norad_id": 66933,
        "name": "STARLINK-36157",
        "group": "last-30-days",
        "lat": 21.875663278604687,
        "lon": -4.028360928745704,
        "alt_km": 407.7959567786438,
        "timestamp": "2025-12-27T05:29:37.918555+00:00",
        "meta_object_name": "STARLINK-36157",
        "meta_object_id": "2025-286J",
        "meta_epoch": "2025-12-26T22:00:01.999584",
        "meta_mean_motion": 15.53506615,
        "meta_eccentricity": 0.00013339,
        "meta_inclination": 53.1598,
        "meta_ra_of_asc_node": 339.954,
        "meta_arg_of_pericenter": 83.9946,
        "meta_mean_anomaly": 357.5072,
        "meta_ephemeris_type": 0,
        "meta_classification_type": "U",
        "meta_norad_cat_id": 66933,
        "meta_element_set_no": 999,
        "meta_rev_at_epoch": 426,
        "meta_bstar": -0.035011058,
        "meta_mean_motion_dot": -0.0202143,
        "meta_mean_motion_ddot": 0,
        "tle_line1": "1 66933U 25286J   25360.91668981 -.02021430  00000+0 -35011-1 0  9998",
        "tle_line2": "2 66933  53.1598 339.9540 0001333  83.9946 357.5072 15.53506615  4260"
      },
      "geometry": {
        "type": "Point",
        "coordinates": [
          -4.028360928745704,
          21.875663278604687
        ]
      }
    }
  ]
}